# From MPEC 2025-CE3
P/2003 QX29 (NEAT),e,11.3999,264.4847,37.7557,7.999671,0.0435608,0.47129690,352.4648,02/14.0/2025,2000,g  8.5,4.0
# From MPEC 2025-CE3
C/2014 UN271 (Bernardinelli-Bernstein),h,01/16.5085/2031,95.4427,189.9489,326.0812,1.004115,10.960028,2000,2.5,3.2
# From MPEC 2025-CE3
P/2015 CD60 (LINEAR),e,14.4826,279.2302,179.0857,4.594728,0.1000724,0.57247912,5.7112,02/14.0/2025,2000,g 14.7,4.0
# From MPEC 2025-CE3
C/2017 K2 (PANSTARRS),e,87.6408,88.2217,236.1909,3007,0.0000060,0.99940152,0.0000,12/18.9144/2022,2000,g  1.5,4.0
# From MPEC 2025-CE3
P/2019 A8 (PANSTARRS),e,2.2968,111.4262,46.8153,3.421375,0.1557410,0.37457082,352.2712,02/14.0/2025,2000,g 16.0,4.0
# From MPEC 2025-CE3
C/2019 E3 (ATLAS),e,84.3105,347.2026,280.7159,5110,0.0000027,0.99798195,0.0000,11/15.5599/2023,2000,g  2.5,4.0
# From MPEC 2025-CE3
C/2019 O3 (Palomar),h,03/08.8595/2021,89.7995,300.4713,60.1124,1.003230,8.821023,2000,3.5,4.0
# From MPEC 2025-CE3
C/2019 T4 (ATLAS),e,53.6255,199.9140,351.1080,874.2417,0.0000381,0.99515221,0.0000,06/08.6366/2022,2000,g  5.0,4.0
# From MPEC 2025-CE3
C/2019 U5 (PANSTARRS),h,03/29.5297/2023,113.5124,2.6198,181.4523,1.000368,3.623902,2000,4.5,4.0
# From MPEC 2025-CG1
P/2019 Y3 (Catalina),e,24.5831,139.3105,2.5495,3.017126,0.1880676,0.69141795,356.5415,02/14.0/2025,2000,g 18.5,4.0
# From MPEC 2025-CE3
C/2019 Y4-B (ATLAS),e,45.0486,120.8403,177.3798,1485,0.0000172,0.99982702,0.0000,05/29.9560/2020,2000,g 12.1,6.0
# From MPEC 2025-CE3
C/2020 F2 (ATLAS),h,07/12.8506/2022,163.5896,250.3041,48.2492,1.003200,8.813608,2000,4.5,4.0
# From MPEC 2025-CE3
C/2020 K1 (PANSTARRS),e,89.6710,94.3669,213.9731,3139,0.0000056,0.99902075,0.0000,05/08.8876/2023,2000,g  5.5,4.0
# From MPEC 2025-CE3
C/2021 A9 (PANSTARRS),h,12/03.5844/2023,158.0168,314.8470,211.5978,1.000552,7.762435,2000,6.0,4.0
# From MPEC 2025-CE3
C/2021 G2 (ATLAS),h,09/09.1412/2024,48.4703,221.0954,343.2684,1.000536,4.982351,2000,5.5,4.0
# From MPEC 2025-CE3
C/2021 S3 (PANSTARRS),h,02/14.6840/2024,58.5350,215.6147,6.8402,1.000071,1.319939,2000,5.5,4.0
# From MPEC 2025-CE3
C/2021 S4 (Tsuchinshan),e,17.4786,5.4620,73.0132,158.4824,0.0004940,0.95778174,0.2012,02/14.0/2025,2000,g  6.5,4.0
# From MPEC 2025-CE3
C/2021 T4 (Lemmon),e,160.7784,257.8922,329.7886,7450,0.0000015,0.99980106,0.0000,07/31.5425/2023,2000,g  7.5,4.0
# From MPEC 2025-CE3
C/2022 E2 (ATLAS),h,09/14.1403/2024,137.1404,125.3936,41.7419,1.000633,3.666329,2000,5.0,4.0
# From MPEC 2025-CE3
C/2022 L2 (ATLAS),h,03/12.2139/2024,129.3134,39.2403,199.9108,1.001017,2.692881,2000,6.5,4.0
# From MPEC 2025-CE3
C/2022 N2 (PANSTARRS),h,07/31.7595/2025,5.5030,319.7414,75.3891,1.003348,3.825440,2000,6.0,4.0
# From MPEC 2025-CE3
C/2022 QE78 (ATLAS),h,09/11.0158/2025,36.5846,119.9028,0.5112,1.004162,5.476683,2000,5.0,4.0
# From MPEC 2025-CE3
C/2022 R3 (Leonard),h,03/05.8665/2023,43.0756,8.2550,72.9236,1.001533,5.131240,2000,9.0,4.0
# From MPEC 2025-CE3
C/2022 R6 (PANSTARRS),h,08/25.9587/2025,57.0187,150.7862,319.8947,1.004981,6.565759,2000,5.0,4.0
# From MPEC 2025-CE3
C/2022 U3 (Bok),h,07/28.6533/2024,33.6612,272.7874,189.1267,1.000692,4.826560,2000,7.5,4.0
# From MPEC 2025-CE3
C/2023 A3 (Tsuchinshan-ATLAS),h,09/27.7416/2024,139.1111,21.5632,308.4973,1.000106,0.391476,2000,6.5,3.2
# From MPEC 2025-CE3
C/2023 F3 (ATLAS),h,02/02.6259/2025,145.9637,109.4641,265.5310,1.003730,5.190795,2000,6.0,4.0
# From MPEC 2025-CE3
C/2023 H5 (Lemmon),h,06/30.2216/2025,97.8560,159.4792,60.0904,1.000408,4.312682,2000,7.0,4.0
# From MPEC 2025-CE3
C/2023 Q1 (PANSTARRS),h,12/01.1433/2024,36.6431,7.1269,84.4183,1.005151,2.575711,2000,10.0,4.0
# From MPEC 2025-CE3
C/2023 R1 (PANSTARRS),h,04/13.5319/2026,149.3166,62.5579,144.2786,1.002054,3.569586,2000,6.0,4.0
# From MPEC 2025-CE3
P/2023 S1,e,9.1574,317.2898,180.2964,3.844591,0.1307462,0.31860833,358.6742,02/14.0/2025,2000,g 11.5,4.0
# From MPEC 2025-CE3
C/2023 T3 (Fuls),e,27.2220,246.0008,302.8460,818.2928,0.0000421,0.99566376,0.0000,01/25.3376/2025,2000,g  8.5,4.0
# From MPEC 2025-CE3
C/2023 U1 (Fuls),e,108.1457,305.8057,255.6351,2367,0.0000086,0.99789938,0.0000,10/12.8371/2024,2000,g  8.0,4.0
# From MPEC 2025-CE3
P/2023 V2 (PANSTARRS),e,9.8882,95.4737,330.5302,7.224042,0.0507614,0.57030633,19.0977,02/14.0/2025,2000,g 13.5,4.0
# From MPEC 2025-CE3
C/2023 X2 (Lemmon),h,12/27.8560/2025,76.9883,66.3074,64.7265,1.000535,5.089602,2000,8.5,3.2
# From MPEC 2025-CE3
C/2024 A1 (ATLAS),h,06/13.7276/2025,94.4487,112.1398,353.3135,1.001731,3.875297,2000,7.0,4.0
# From MPEC 2025-CE3
C/2024 A2 (ATLAS),e,119.1166,78.1669,295.5327,32.48490,0.0053233,0.94211863,1.5497,02/14.0/2025,2000,g 12.5,4.0
# From MPEC 2025-CE3
C/2024 B1 (Lemmon),h,10/07.7075/2024,70.9038,79.1878,66.2119,1.000932,1.633737,2000,13.0,4.0
# From MPEC 2025-CE3
C/2024 C3 (PANSTARRS),e,22.4579,359.7080,159.6634,11.66138,0.0247502,0.42436398,11.4758,02/14.0/2025,2000,g  9.0,4.0
# From MPEC 2025-CE3
C/2024 E1 (Wierzchos),h,01/20.7653/2026,75.2383,108.0825,243.6419,1.000044,0.565798,2000,7.0,4.0
# From MPEC 2025-CE3
C/2024 G2 (ATLAS),e,122.1291,171.3931,328.7331,740.3122,0.0000489,0.99277578,0.0000,06/13.5096/2025,2000,g  7.0,4.0
# From MPEC 2025-CE3
C/2024 G4 (PANSTARRS),e,33.0262,152.9871,131.4253,3015,0.0000060,0.99837481,0.0000,03/21.6937/2026,2000,g  8.0,4.0
# From MPEC 2025-CE3
C/2024 J2 (Wierzchos),e,79.2970,189.0594,143.1587,147.1856,0.0005520,0.98769658,0.0000,03/19.7816/2025,2000,g 11.5,4.0
# From MPEC 2025-CE3
C/2024 J4 (Lemmon),e,117.5328,19.3013,127.8564,6716,0.0000018,0.99915194,0.0000,04/26.0062/2025,2000,g  8.0,4.0
# From MPEC 2025-CE3
P/2024 L4 (Rankin),e,10.0465,139.7786,53.6992,2.228164,0.2963352,0.69839779,90.5914,02/14.0/2025,2000,g 21.5,4.0
# From MPEC 2025-CE3
C/2024 L5 (ATLAS),h,03/10.3969/2025,166.5733,139.1757,290.5136,1.037351,3.432409,2000,9.0,4.0
# From MPEC 2025-CE3
C/2024 M1 (ATLAS),e,73.7099,76.2150,345.5941,29.90596,0.0060265,0.94304372,0.5182,02/14.0/2025,2000,g 12.0,4.0
# From MPEC 2025-CE3
C/2024 N3 (Sarneczky),h,04/11.3909/2025,88.7288,82.6079,86.8794,1.001136,5.014574,2000,8.0,4.0
# From MPEC 2025-CE3
C/2024 N4 (Sarneczky),h,01/10.0184/2025,49.7717,339.6615,116.6832,1.004526,5.397611,2000,7.5,4.0
# From MPEC 2025-CE3
C/2024 PN7 (PANSTARRS),e,101.2102,358.5831,74.2743,67.36647,0.0017825,0.97736963,0.0000,12/06.4401/2024,2000,g 15.2,4.0
# From MPEC 2025-CE3
C/2024 Q4 (PANSTARRS),e,3.3121,324.3004,133.0097,914.0600,0.0000357,0.99407172,0.0000,11/12.1505/2024,2000,g 10.0,4.0
# From MPEC 2025-CE3
P/2024 R2 (PANSTARRS),e,15.1167,193.0452,203.9738,3.149732,0.1763168,0.26860894,23.8166,02/14.0/2025,2000,g 15.5,4.0
# From MPEC 2025-CE3
P/2024 T1 (Rankin),e,17.6198,279.7099,164.8740,6.603484,0.0580824,0.65366203,7.9324,02/14.0/2025,2000,g 14.5,4.0
# From MPEC 2025-CE3
P/2024 T2 (Rankin),e,12.9286,113.0607,343.8296,6.174861,0.0642337,0.68059348,4.3460,02/14.0/2025,2000,g 16.0,4.0
# From MPEC 2025-CE3
C/2024 T3 (PANSTARRS),e,53.4843,74.8306,336.8908,83.67864,0.0012876,0.95558967,359.9623,02/14.0/2025,2000,g 11.5,4.0
# From MPEC 2025-CE3
C/2024 T5 (ATLAS),h,05/06.3024/2027,52.3871,100.6823,352.4200,1.002028,3.842971,2000,5.5,4.0
# From MPEC 2025-CE3
C/2024 U1 (PANSTARRS),e,128.7539,270.2625,188.0772,525.9605,0.0000817,0.99080554,0.0000,06/30.4773/2024,2000,g 10.0,4.0
# From MPEC 2025-CE3
C/2024 V1 (Borisov),e,54.6231,328.1952,168.6623,234.6232,0.0002743,0.99011828,0.0000,04/04.1002/2025,2000,g 14.8,4.0
# From MPEC 2025-CE3
C/2024 W1 (PANSTARRS),e,83.2004,310.7278,256.7342,44.81581,0.0032852,0.94286142,359.8913,02/14.0/2025,2000,g 15.0,4.0
# From MPEC 2025-CE3
A/2024 W2,h,02/27.5276/2025,116.6390,241.9365,168.0224,1.003003,3.720729,2000,15.0,2.0
# From MPEC 2025-CE3
C/2024 X1 (Fazekas),e,6.4562,352.2487,124.1657,9.532935,0.0334861,0.59970364,354.2837,02/14.0/2025,2000,g 11.3,4.0
# From MPEC 2025-CE3
C/2024 X2 (ATLAS),e,109.2224,122.5178,315.7663,50.71861,0.0027287,0.92750903,359.6076,02/14.0/2025,2000,g  9.6,4.0
# From MPEC 2025-CE3
P/2024 X3 (PANSTARRS),e,2.9725,113.3663,352.9242,7.001004,0.0532064,0.62662705,8.5804,02/14.0/2025,2000,g 14.6,4.0
# From MPEC 2025-CE3
C/2024 Y1 (Masek),e,64.7503,112.5453,238.1399,61.72640,0.0020323,0.98667749,0.0000,11/26.8588/2024,2000,g 17.6,4.0
# From MPEC 2025-CE3
A/2025 A1,h,03/12.1007/2027,33.4340,101.3293,68.0176,1.003937,5.345383,2000,9.0,4.0
# From MPEC 2025-CE3
P/2025 A2 (PANSTARRS),e,20.7331,189.3215,278.0529,5.085501,0.0859416,0.32232429,11.2819,02/14.0/2025,2000,g 13.2,4.0
# From MPEC 2025-CE3
C/2025 A3 (Tsuchinshan),e,9.9379,322.3979,219.0956,10.12320,0.0306004,0.42241303,349.0378,02/14.0/2025,2000,g  9.0,4.0
# From MPEC 2025-CE3
C/2025 A4 (PANSTARRS),e,32.0265,69.9016,102.8339,11.03064,0.0269032,0.65334013,0.8523,02/14.0/2025,2000,g 12.4,4.0
# From MPEC 2025-CE3
C/2025 B1 (PANSTARRS),h,06/26.7449/2025,39.6686,102.8394,23.5286,1.002461,3.530834,2000,12.0,4.0
# From MPEC 2025-CF3
C/2025 B2 (Borisov),e,91.7858,84.9060,78.4615,4844,0.0000029,0.99829468,0.0000,09/06.4296/2026,2000,g  6.2,4.0
# From MPEC 2025-CF8
P/2025 C1 (ATLAS),e,7.5240,9.1603,186.2586,4.272668,0.1115977,0.35568842,1.0695,02/14.0/2025,2000,g 10.8,4.0
# From MPEC 2025-CE3
10P/Tempel,e,12.0275,117.8016,195.5031,3.063509,0.1838126,0.53738538,261.8112,02/14.0/2025,2000,g  5.0,10.0
# From MPEC 2025-CE3
29P/Schwassmann-Wachmann,e,9.3562,312.4044,52.1780,6.056124,0.0661320,0.04347666,139.7407,02/14.0/2025,2000,g  4.0,4.0
# From MPEC 2025-CE3
30P/Reinmuth,e,8.0532,117.2346,9.4995,3.734713,0.1365583,0.51436015,24.6888,02/14.0/2025,2000,g  9.5,6.0
# From MPEC 2025-CE3
32P/ComasSola,e,9.9205,54.5309,54.6921,4.553217,0.1014441,0.55529093,30.3663,02/14.0/2025,2000,g  6.5,8.0
# From MPEC 2025-CE3
33P/Daniel,e,22.2942,66.2818,20.2700,4.093520,0.1190032,0.45216986,11.3124,02/14.0/2025,2000,g 10.0,12.0
# From MPEC 2025-CE3
40P/Vaisala,e,11.6340,128.9180,51.9986,4.953393,0.0894025,0.63177698,335.7799,02/14.0/2025,2000,g  5.5,12.0
# From MPEC 2025-CE3
43P/Wolf-Harrington,e,9.3337,243.9960,223.8551,4.331145,0.1093453,0.43603459,341.2064,02/14.0/2025,2000,g  8.0,6.0
# From MPEC 2025-CE3
